0 COSMOS 1275 DEB
1 12698U 81053AS  13282.05584586  .00001439  00000-0  81188-3 0   739
2 12698 082.9184 156.7356 0011095 215.3152 242.2097 14.09661211634918
0 COSMOS 1275 DEB
1 12698U 81053AS  13283.40872924  .00001435  00000-0  80959-3 0   747
2 12698 082.9182 155.6703 0011203 211.1257 267.9907 14.09666063635107
0 COSMOS 1275 DEB
1 12698U 81053AS  13286.03083899  .00001452  00000-0  81900-3 0   762
2 12698 082.9178 153.6054 0011354 203.3407 254.7220 14.09672373635479
0 COSMOS 1275 DEB
1 12698U 81053AS  13287.65452458  .00001717  00000-0  97012-3 0   778
2 12698 082.9174 152.3266 0011458 198.6145 214.5681 14.09677776635709
0 COSMOS 1275 DEB
1 12698U 81053AS  13289.42973016  .00001573  00000-0  88801-3 0   780
2 12698 082.9171 150.9285 0011564 193.6378 223.1961 14.09685278635952
0 COSMOS 1275 DEB
1 12698U 81053AS  13290.63563672  .00001670  00000-0  94291-3 0   797
2 12698 082.9170 149.9787 0011617 190.1621 222.9245 14.09689076636120
0 COSMOS 1275 DEB
1 12698U 81053AS  13292.06935824  .00001674  00000-0  94527-3 0   806
2 12698 082.9170 148.8495 0011703 186.1399 298.6825 14.09692682636320
0 COSMOS 1275 DEB
1 12698U 81053AS  13293.40435646  .00001779  00000-0  10048-2 0   814
2 12698 082.9170 147.7980 0011766 182.2026 233.6575 14.09697322636518
0 COSMOS 1275 DEB
1 12698U 81053AS  13294.76778248  .00001846  00000-0  10431-2 0   824
2 12698 082.9169 146.7240 0011826 178.2888 312.8145 14.09702327636708
0 COSMOS 1275 DEB
1 12698U 81053AS  13295.88951509  .00001926  00000-0  10885-2 0   834
2 12698 082.9168 145.8403 0011888 175.0674 245.4379 14.09706267636868
